KUIPER-00152            
1 65772U 25217L   25354.83335647 -.00002811  00000+0 -89631-4 0  9996
2 65772  51.8774  25.0554 0002629  27.3992 310.9176 15.27690435  3791
KUIPER-00153            
1 65773U 25217M   25354.30311934  .00007632  00000+0  46416-3 0  9999
2 65773  51.8782  36.9748 0013171  46.8352 313.3722 15.11287252 13086
KUIPER-00155            
1 65774U 25217N   25354.49899101  .00027068  00000+0  72624-3 0  9992
2 65774  51.8692  27.1936 0008833  42.1386 318.0278 15.37728690 13232
KUIPER-00156            
1 65775U 25217P   25354.80917676  .00024646  00000+0  62658-3 0  9991
2 65775  51.8739  24.8316 0003855  44.3520 315.7776 15.39467087 13299
KUIPER-00158            
1 65776U 25217Q   25354.83335647 -.00054677  00000+0 -66043-2 0  9997
2 65776  51.8973  34.4092 0005653  37.8585  52.9500 14.83518834  5486
KUIPER-00163            
1 65777U 25217R   25354.83335647 -.00074994  00000+0 -10200-1 0  9995
2 65777  51.8976  36.7140 0005556  69.2245 138.5317 14.78740678  5308
KUIPER-00165            
1 65778U 25217S   25354.83335647 -.00981908  00000+0 -60829-1 0  9990
2 65778  51.8884  27.1890 0005472  50.1150 253.2950 15.12292253  3265
KUIPER-00166            
1 65779U 25217T   25354.82550987  .00018705  00000+0  48217-3 0  9999
2 65779  51.8713  24.9352 0003852  12.6360 347.4724 15.39222964 13291
