<?xml version="1.0" encoding="UTF-8"?>
<ndm xmlns:xsi="http://www.w3.org/2001/XMLSchema-instance" xsi:noNamespaceSchemaLocation="https://sanaregistry.org/r/ndmxml_unqualified/ndmxml-2.0.0-master-2.0.xsd">
<omm id="CCSDS_OMM_VERS" version="2.0">
<header><CREATION_DATE/><ORIGINATOR/></header><body><segment><metadata><OBJECT_NAME>KUIPER-00152</OBJECT_NAME><OBJECT_ID>2025-217L</OBJECT_ID><CENTER_NAME>EARTH</CENTER_NAME><REF_FRAME>TEME</REF_FRAME><TIME_SYSTEM>UTC</TIME_SYSTEM><MEAN_ELEMENT_THEORY>SGP4</MEAN_ELEMENT_THEORY></metadata><data><meanElements><EPOCH>2025-12-20T20:00:01.999008</EPOCH><MEAN_MOTION>15.27690435</MEAN_MOTION><ECCENTRICITY>.0002629</ECCENTRICITY><INCLINATION>51.8774</INCLINATION><RA_OF_ASC_NODE>25.0554</RA_OF_ASC_NODE><ARG_OF_PERICENTER>27.3992</ARG_OF_PERICENTER><MEAN_ANOMALY>310.9176</MEAN_ANOMALY></meanElements><tleParameters><EPHEMERIS_TYPE>0</EPHEMERIS_TYPE><CLASSIFICATION_TYPE>U</CLASSIFICATION_TYPE><NORAD_CAT_ID>65772</NORAD_CAT_ID><ELEMENT_SET_NO>999</ELEMENT_SET_NO><REV_AT_EPOCH>379</REV_AT_EPOCH><BSTAR>-.89631E-4</BSTAR><MEAN_MOTION_DOT>-.2811E-4</MEAN_MOTION_DOT><MEAN_MOTION_DDOT>0</MEAN_MOTION_DDOT></tleParameters></data></segment></body></omm>
<omm id="CCSDS_OMM_VERS" version="2.0">
<header><CREATION_DATE/><ORIGINATOR/></header><body><segment><metadata><OBJECT_NAME>KUIPER-00153</OBJECT_NAME><OBJECT_ID>2025-217M</OBJECT_ID><CENTER_NAME>EARTH</CENTER_NAME><REF_FRAME>TEME</REF_FRAME><TIME_SYSTEM>UTC</TIME_SYSTEM><MEAN_ELEMENT_THEORY>SGP4</MEAN_ELEMENT_THEORY></metadata><data><meanElements><EPOCH>2025-12-20T07:16:29.510976</EPOCH><MEAN_MOTION>15.11287252</MEAN_MOTION><ECCENTRICITY>.00131713</ECCENTRICITY><INCLINATION>51.8782</INCLINATION><RA_OF_ASC_NODE>36.9748</RA_OF_ASC_NODE><ARG_OF_PERICENTER>46.8352</ARG_OF_PERICENTER><MEAN_ANOMALY>313.3722</MEAN_ANOMALY></meanElements><tleParameters><EPHEMERIS_TYPE>0</EPHEMERIS_TYPE><CLASSIFICATION_TYPE>U</CLASSIFICATION_TYPE><NORAD_CAT_ID>65773</NORAD_CAT_ID><ELEMENT_SET_NO>999</ELEMENT_SET_NO><REV_AT_EPOCH>1308</REV_AT_EPOCH><BSTAR>.46416402E-3</BSTAR><MEAN_MOTION_DOT>.7632E-4</MEAN_MOTION_DOT><MEAN_MOTION_DDOT>0</MEAN_MOTION_DDOT></tleParameters></data></segment></body></omm>
<omm id="CCSDS_OMM_VERS" version="2.0">
<header><CREATION_DATE/><ORIGINATOR/></header><body><segment><metadata><OBJECT_NAME>KUIPER-00155</OBJECT_NAME><OBJECT_ID>2025-217N</OBJECT_ID><CENTER_NAME>EARTH</CENTER_NAME><REF_FRAME>TEME</REF_FRAME><TIME_SYSTEM>UTC</TIME_SYSTEM><MEAN_ELEMENT_THEORY>SGP4</MEAN_ELEMENT_THEORY></metadata><data><meanElements><EPOCH>2025-12-20T11:58:32.823264</EPOCH><MEAN_MOTION>15.37728690</MEAN_MOTION><ECCENTRICITY>.00088332</ECCENTRICITY><INCLINATION>51.8692</INCLINATION><RA_OF_ASC_NODE>27.1936</RA_OF_ASC_NODE><ARG_OF_PERICENTER>42.1386</ARG_OF_PERICENTER><MEAN_ANOMALY>318.0278</MEAN_ANOMALY></meanElements><tleParameters><EPHEMERIS_TYPE>0</EPHEMERIS_TYPE><CLASSIFICATION_TYPE>U</CLASSIFICATION_TYPE><NORAD_CAT_ID>65774</NORAD_CAT_ID><ELEMENT_SET_NO>999</ELEMENT_SET_NO><REV_AT_EPOCH>1323</REV_AT_EPOCH><BSTAR>.72624386E-3</BSTAR><MEAN_MOTION_DOT>.27068E-3</MEAN_MOTION_DOT><MEAN_MOTION_DDOT>0</MEAN_MOTION_DDOT></tleParameters></data></segment></body></omm>
<omm id="CCSDS_OMM_VERS" version="2.0">
<header><CREATION_DATE/><ORIGINATOR/></header><body><segment><metadata><OBJECT_NAME>KUIPER-00156</OBJECT_NAME><OBJECT_ID>2025-217P</OBJECT_ID><CENTER_NAME>EARTH</CENTER_NAME><REF_FRAME>TEME</REF_FRAME><TIME_SYSTEM>UTC</TIME_SYSTEM><MEAN_ELEMENT_THEORY>SGP4</MEAN_ELEMENT_THEORY></metadata><data><meanElements><EPOCH>2025-12-20T19:25:12.872064</EPOCH><MEAN_MOTION>15.39467087</MEAN_MOTION><ECCENTRICITY>.0003855</ECCENTRICITY><INCLINATION>51.8739</INCLINATION><RA_OF_ASC_NODE>24.8316</RA_OF_ASC_NODE><ARG_OF_PERICENTER>44.3520</ARG_OF_PERICENTER><MEAN_ANOMALY>315.7776</MEAN_ANOMALY></meanElements><tleParameters><EPHEMERIS_TYPE>0</EPHEMERIS_TYPE><CLASSIFICATION_TYPE>U</CLASSIFICATION_TYPE><NORAD_CAT_ID>65775</NORAD_CAT_ID><ELEMENT_SET_NO>999</ELEMENT_SET_NO><REV_AT_EPOCH>1329</REV_AT_EPOCH><BSTAR>.62658E-3</BSTAR><MEAN_MOTION_DOT>.24646E-3</MEAN_MOTION_DOT><MEAN_MOTION_DDOT>0</MEAN_MOTION_DDOT></tleParameters></data></segment></body></omm>
<omm id="CCSDS_OMM_VERS" version="2.0">
<header><CREATION_DATE/><ORIGINATOR/></header><body><segment><metadata><OBJECT_NAME>KUIPER-00158</OBJECT_NAME><OBJECT_ID>2025-217Q</OBJECT_ID><CENTER_NAME>EARTH</CENTER_NAME><REF_FRAME>TEME</REF_FRAME><TIME_SYSTEM>UTC</TIME_SYSTEM><MEAN_ELEMENT_THEORY>SGP4</MEAN_ELEMENT_THEORY></metadata><data><meanElements><EPOCH>2025-12-20T20:00:01.999008</EPOCH><MEAN_MOTION>14.83518834</MEAN_MOTION><ECCENTRICITY>.0005653</ECCENTRICITY><INCLINATION>51.8973</INCLINATION><RA_OF_ASC_NODE>34.4092</RA_OF_ASC_NODE><ARG_OF_PERICENTER>37.8585</ARG_OF_PERICENTER><MEAN_ANOMALY>52.9500</MEAN_ANOMALY></meanElements><tleParameters><EPHEMERIS_TYPE>0</EPHEMERIS_TYPE><CLASSIFICATION_TYPE>U</CLASSIFICATION_TYPE><NORAD_CAT_ID>65776</NORAD_CAT_ID><ELEMENT_SET_NO>999</ELEMENT_SET_NO><REV_AT_EPOCH>548</REV_AT_EPOCH><BSTAR>-.66043E-2</BSTAR><MEAN_MOTION_DOT>-.54677E-3</MEAN_MOTION_DOT><MEAN_MOTION_DDOT>0</MEAN_MOTION_DDOT></tleParameters></data></segment></body></omm>
<omm id="CCSDS_OMM_VERS" version="2.0">
<header><CREATION_DATE/><ORIGINATOR/></header><body><segment><metadata><OBJECT_NAME>KUIPER-00163</OBJECT_NAME><OBJECT_ID>2025-217R</OBJECT_ID><CENTER_NAME>EARTH</CENTER_NAME><REF_FRAME>TEME</REF_FRAME><TIME_SYSTEM>UTC</TIME_SYSTEM><MEAN_ELEMENT_THEORY>SGP4</MEAN_ELEMENT_THEORY></metadata><data><meanElements><EPOCH>2025-12-20T20:00:01.999008</EPOCH><MEAN_MOTION>14.78740678</MEAN_MOTION><ECCENTRICITY>.0005556</ECCENTRICITY><INCLINATION>51.8976</INCLINATION><RA_OF_ASC_NODE>36.7140</RA_OF_ASC_NODE><ARG_OF_PERICENTER>69.2245</ARG_OF_PERICENTER><MEAN_ANOMALY>138.5317</MEAN_ANOMALY></meanElements><tleParameters><EPHEMERIS_TYPE>0</EPHEMERIS_TYPE><CLASSIFICATION_TYPE>U</CLASSIFICATION_TYPE><NORAD_CAT_ID>65777</NORAD_CAT_ID><ELEMENT_SET_NO>999</ELEMENT_SET_NO><REV_AT_EPOCH>530</REV_AT_EPOCH><BSTAR>-.102E-1</BSTAR><MEAN_MOTION_DOT>-.74994E-3</MEAN_MOTION_DOT><MEAN_MOTION_DDOT>0</MEAN_MOTION_DDOT></tleParameters></data></segment></body></omm>
<omm id="CCSDS_OMM_VERS" version="2.0">
<header><CREATION_DATE/><ORIGINATOR/></header><body><segment><metadata><OBJECT_NAME>KUIPER-00165</OBJECT_NAME><OBJECT_ID>2025-217S</OBJECT_ID><CENTER_NAME>EARTH</CENTER_NAME><REF_FRAME>TEME</REF_FRAME><TIME_SYSTEM>UTC</TIME_SYSTEM><MEAN_ELEMENT_THEORY>SGP4</MEAN_ELEMENT_THEORY></metadata><data><meanElements><EPOCH>2025-12-20T20:00:01.999008</EPOCH><MEAN_MOTION>15.12292253</MEAN_MOTION><ECCENTRICITY>.0005472</ECCENTRICITY><INCLINATION>51.8884</INCLINATION><RA_OF_ASC_NODE>27.1890</RA_OF_ASC_NODE><ARG_OF_PERICENTER>50.1150</ARG_OF_PERICENTER><MEAN_ANOMALY>253.2950</MEAN_ANOMALY></meanElements><tleParameters><EPHEMERIS_TYPE>0</EPHEMERIS_TYPE><CLASSIFICATION_TYPE>U</CLASSIFICATION_TYPE><NORAD_CAT_ID>65778</NORAD_CAT_ID><ELEMENT_SET_NO>999</ELEMENT_SET_NO><REV_AT_EPOCH>326</REV_AT_EPOCH><BSTAR>-.60829E-1</BSTAR><MEAN_MOTION_DOT>-.981908E-2</MEAN_MOTION_DOT><MEAN_MOTION_DDOT>0</MEAN_MOTION_DDOT></tleParameters></data></segment></body></omm>
<omm id="CCSDS_OMM_VERS" version="2.0">
<header><CREATION_DATE/><ORIGINATOR/></header><body><segment><metadata><OBJECT_NAME>KUIPER-00166</OBJECT_NAME><OBJECT_ID>2025-217T</OBJECT_ID><CENTER_NAME>EARTH</CENTER_NAME><REF_FRAME>TEME</REF_FRAME><TIME_SYSTEM>UTC</TIME_SYSTEM><MEAN_ELEMENT_THEORY>SGP4</MEAN_ELEMENT_THEORY></metadata><data><meanElements><EPOCH>2025-12-20T19:48:44.052768</EPOCH><MEAN_MOTION>15.39222964</MEAN_MOTION><ECCENTRICITY>.0003852</ECCENTRICITY><INCLINATION>51.8713</INCLINATION><RA_OF_ASC_NODE>24.9352</RA_OF_ASC_NODE><ARG_OF_PERICENTER>12.6360</ARG_OF_PERICENTER><MEAN_ANOMALY>347.4724</MEAN_ANOMALY></meanElements><tleParameters><EPHEMERIS_TYPE>0</EPHEMERIS_TYPE><CLASSIFICATION_TYPE>U</CLASSIFICATION_TYPE><NORAD_CAT_ID>65779</NORAD_CAT_ID><ELEMENT_SET_NO>999</ELEMENT_SET_NO><REV_AT_EPOCH>1329</REV_AT_EPOCH><BSTAR>.48217E-3</BSTAR><MEAN_MOTION_DOT>.18705E-3</MEAN_MOTION_DOT><MEAN_MOTION_DDOT>0</MEAN_MOTION_DDOT></tleParameters></data></segment></body></omm>

</ndm>
